STARLINK-36988          
1 67998U 26039N   26087.50001156 -.01848314  00000+0 -46486-1 0  9999
2 67998  43.0003 302.6780 0001320 257.7576 347.6602 15.42403861  5908
STARLINK-36926          
1 67999U 26039P   26087.50001156 -.01898231  00000+0 -42041-1 0  9996
2 67999  42.9998 302.6620 0001338 251.4784 359.8633 15.46194654  5904
STARLINK-36931          
1 68000U 26039Q   26087.50001156 -.01889257  00000+0 -50664-1 0  9998
2 68000  43.0002 302.4661 0001514 249.3146  81.2389 15.40569705  5904
STARLINK-36903          
1 68001U 26039R   26087.50001156  .00058093  00000+0  20545-2 0  9998
2 68001  42.9993 303.1698 0001435 264.2062 137.5566 15.28360565  5906
STARLINK-36898          
1 68002U 26039S   26087.50001156  .00040480  00000+0  14382-2 0  9992
2 68002  42.9993 303.0122 0002223 248.0349 216.2842 15.28351535  5901
STARLINK-36862          
1 68003U 26039T   26087.50001156  .00053288  00000+0  18848-2 0  9994
2 68003  42.9996 303.1983 0001236 242.2604 146.1508 15.28391309  5907
STARLINK-36888          
1 68004U 26039U   26087.50001156  .00053457  00000+0  18906-2 0  9998
2 68004  42.9995 303.2120 0001813 257.0339 126.4702 15.28392204  5903
STARLINK-36910          
1 68005U 26039V   26087.50001156  .00042576  00000+0  15098-2 0  9998
2 68005  42.9992 302.9514 0001907 256.8490 232.0353 15.28395185  5900
STARLINK-36889          
1 68006U 26039W   26087.50001156 -.01843553  00000+0 -58705-1 0  9997
2 68006  42.9995 302.8904 0001385 268.5681 249.1290 15.35260010  5903
STARLINK-36592          
1 68007U 26039X   26087.50001156 -.01088884  00000+0 -41207-1 0  9995
2 68007  42.9992 302.8042 0002093 260.0562 290.2711 15.29154975  5906
STARLINK-36911          
1 68008U 26039Y   26087.50001156 -.01837000  00000+0 -62161-1 0  9990
2 68008  42.9996 302.7403 0001127 264.8020 312.7505 15.33356431  5906
STARLINK-36956          
1 68009U 26039Z   26087.50001156 -.01853600  00000+0 -58496-1 0  9991
2 68009  43.0000 302.7331 0001129 263.4967 317.5919 15.35559241  5900
